*******************************************************************************
 Revised: Aug 19, 2015              134340 Pluto                            999
   https://www.sciencedirect.com/science/article/pii/S0019103514001419#t0050
 
 Pre-computed solution PLU043/DE430 reversion; fit to data through 2013.

 PHYSICAL DATA (updated 2021-Jun-07; Mc= Charon mass, radius is IAU 2009):
  Mass x10^22 (kg)      = 1.307+-0.018    Volume, 10^10 km^3    = 0.697
  GM (planet) km^3/s^2  = 869.61          Density (R=1195 km)   = 1.86 g/cm^3
  GM 1-sigma, km^3/s^2  =   0.08          Surface gravity       = 0.611 m/s^2 
  Vol. mean radius (km) = 1188.3+-1.6     Mass ratio (Mc/Mp)    = 0.117
  Sidereal rot. period  = 153.29335198 h  Sid. rot. rat, rad/s  = 0.0000113856
  Mean solar day, h     = 153.2820        Mean orbit velocity   = 4.67 km/s
  Sidereal orbit period = 249.58932 yr    Escape speed, km/s    = 1.21            
                                 Perihelion  Aphelion    Mean
  Solar Constant (W/m^2)         1.56        0.56        0.88
  Maximum Planetary IR (W/m^2)   0.8         0.3         0.5
  Minimum Planetary IR (W/m^2)   0.8         0.3         0.5
*******************************************************************************


*******************************************************************************
Ephemeris / WWW_USER Sat Jun 10 10:44:22 2023 Pasadena, USA      / Horizons
*******************************************************************************
Target body name: Pluto (999)                     {source: plu043_merged}
Center body name: Earth (399)                     {source: plu043_merged}
Center-site name: Greenwich
*******************************************************************************
Start time      : A.D. 1930-Jan-01 00:00:00.0000 TDB
Stop  time      : A.D. 2030-Jan-01 00:00:00.0000 TDB
Step-size       : 10080 minutes
*******************************************************************************
Center geodetic : 0.0, 51.4773207, .0670693       {E-lon(deg),Lat(deg),Alt(km)}
Center cylindric: 0.0, 3980.6647, 4966.84378      {E-lon(deg),Dxy(km),Dz(km)}
Center pole/equ : ITRF93                          {East-longitude positive}
Center radii    : 6378.137, 6378.137, 6356.752 km {Equator_a, b, pole_c}
Output units    : KM-S
Calendar mode   : Mixed Julian/Gregorian
Output type     : GEOMETRIC cartesian states
Output format   : 1 (position only)
EOP file        : eop.230609.p230901
EOP coverage    : DATA-BASED 1962-JAN-20 TO 2023-JUN-09. PREDICTS-> 2023-AUG-31
Reference frame : Ecliptic of J2000.0
*******************************************************************************
JDTDB
   X     Y     Z
*******************************************************************************
$$SOE
2461593.500000000 = A.D. 2027-Jul-07 00:00:00.0000 TDB 
 X = 3.060126505328580E+09 Y =-4.201004831036394E+09 Z =-4.307127173675838E+08
2461600.500000000 = A.D. 2027-Jul-14 00:00:00.0000 TDB 
 X = 3.046030715643368E+09 Y =-4.205240335196383E+09 Z =-4.316404260273938E+08
2461607.500000000 = A.D. 2027-Jul-21 00:00:00.0000 TDB 
 X = 3.032689947809488E+09 Y =-4.211424403429339E+09 Z =-4.325663532892692E+08
2461614.500000000 = A.D. 2027-Jul-28 00:00:00.0000 TDB 
 X = 3.020315223010550E+09 Y =-4.219460029627873E+09 Z =-4.334915495841594E+08
2461621.500000000 = A.D. 2027-Aug-04 00:00:00.0000 TDB 
 X = 3.009119643721297E+09 Y =-4.229236416507027E+09 Z =-4.344169736620669E+08
2461628.500000000 = A.D. 2027-Aug-11 00:00:00.0000 TDB 
 X = 2.999314655462679E+09 Y =-4.240602959770530E+09 Z =-4.353417998270762E+08
2461635.500000000 = A.D. 2027-Aug-18 00:00:00.0000 TDB 
 X = 2.991074383806114E+09 Y =-4.253377002169338E+09 Z =-4.362659697112269E+08
2461642.500000000 = A.D. 2027-Aug-25 00:00:00.0000 TDB 
 X = 2.984546067032654E+09 Y =-4.267373860918121E+09 Z =-4.371908769847903E+08
2461649.500000000 = A.D. 2027-Sep-01 00:00:00.0000 TDB 
 X = 2.979870562781561E+09 Y =-4.282399259046137E+09 Z =-4.381171008325596E+08
2461656.500000000 = A.D. 2027-Sep-08 00:00:00.0000 TDB 
 X = 2.977174886880686E+09 Y =-4.298224681974273E+09 Z =-4.390431586568105E+08
2461663.500000000 = A.D. 2027-Sep-15 00:00:00.0000 TDB 
 X = 2.976539105751633E+09 Y =-4.314601026440309E+09 Z =-4.399684369473794E+08
2461670.500000000 = A.D. 2027-Sep-22 00:00:00.0000 TDB 
 X = 2.978011466387136E+09 Y =-4.331287649093452E+09 Z =-4.408937080922124E+08
2461677.500000000 = A.D. 2027-Sep-29 00:00:00.0000 TDB 
 X = 2.981628363592247E+09 Y =-4.348042590551450E+09 Z =-4.418189981425331E+08
2461684.500000000 = A.D. 2027-Oct-06 00:00:00.0000 TDB 
 X = 2.987403018063159E+09 Y =-4.364600229453877E+09 Z =-4.427429154069955E+08
2461691.500000000 = A.D. 2027-Oct-13 00:00:00.0000 TDB 
 X = 2.995296249164041E+09 Y =-4.380690882381283E+09 Z =-4.436655947289743E+08
2461698.500000000 = A.D. 2027-Oct-20 00:00:00.0000 TDB 
 X = 3.005236005318194E+09 Y =-4.396067922266630E+09 Z =-4.445885630939081E+08
2461705.500000000 = A.D. 2027-Oct-27 00:00:00.0000 TDB 
 X = 3.017137239359276E+09 Y =-4.410495816368822E+09 Z =-4.455123088069048E+08
2461712.500000000 = A.D. 2027-Nov-03 00:00:00.0000 TDB 
 X = 3.030887538072783E+09 Y =-4.423729742980602E+09 Z =-4.464358786231189E+08
2461719.500000000 = A.D. 2027-Nov-10 00:00:00.0000 TDB 
 X = 3.046323726743000E+09 Y =-4.435539897095794E+09 Z =-4.473596375217373E+08
2461726.500000000 = A.D. 2027-Nov-17 00:00:00.0000 TDB 
 X = 3.063256235300017E+09 Y =-4.445734689519677E+09 Z =-4.482846453880131E+08
2461733.500000000 = A.D. 2027-Nov-24 00:00:00.0000 TDB 
 X = 3.081489524115437E+09 Y =-4.454146096043013E+09 Z =-4.492104043603072E+08
2461740.500000000 = A.D. 2027-Dec-01 00:00:00.0000 TDB 
 X = 3.100805571501966E+09 Y =-4.460610731395849E+09 Z =-4.501352532374203E+08
2461747.500000000 = A.D. 2027-Dec-08 00:00:00.0000 TDB 
 X = 3.120947062119228E+09 Y =-4.464997588863803E+09 Z =-4.510592905460896E+08
2461754.500000000 = A.D. 2027-Dec-15 00:00:00.0000 TDB 
 X = 3.141645705627568E+09 Y =-4.467225612693883E+09 Z =-4.519834442894063E+08
2461761.500000000 = A.D. 2027-Dec-22 00:00:00.0000 TDB 
 X = 3.162642115457796E+09 Y =-4.467245766947507E+09 Z =-4.529073246061265E+08
2461768.500000000 = A.D. 2027-Dec-29 00:00:00.0000 TDB 
 X = 3.183666953897359E+09 Y =-4.465022746995646E+09 Z =-4.538300029964979E+08
2461775.500000000 = A.D. 2028-Jan-05 00:00:00.0000 TDB 
 X = 3.204429918443363E+09 Y =-4.460564114808149E+09 Z =-4.547525437443676E+08
2461782.500000000 = A.D. 2028-Jan-12 00:00:00.0000 TDB 
 X = 3.224650375122097E+09 Y =-4.453930286838134E+09 Z =-4.556763698600497E+08
2461789.500000000 = A.D. 2028-Jan-19 00:00:00.0000 TDB 
 X = 3.244074952219686E+09 Y =-4.445212212274856E+09 Z =-4.566010584598677E+08
2461796.500000000 = A.D. 2028-Jan-26 00:00:00.0000 TDB 
 X = 3.262456035075139E+09 Y =-4.434513099670267E+09 Z =-4.575254916058989E+08
2461803.500000000 = A.D. 2028-Feb-02 00:00:00.0000 TDB 
 X = 3.279545191081965E+09 Y =-4.421977488981871E+09 Z =-4.584502682817862E+08
2461810.500000000 = A.D. 2028-Feb-09 00:00:00.0000 TDB 
 X = 3.295124053636779E+09 Y =-4.407793662506794E+09 Z =-4.593759295217865E+08
2461817.500000000 = A.D. 2028-Feb-16 00:00:00.0000 TDB 
 X = 3.309017204631668E+09 Y =-4.392167676679747E+09 Z =-4.603012489908915E+08
2461824.500000000 = A.D. 2028-Feb-23 00:00:00.0000 TDB 
 X = 3.321066931146741E+09 Y =-4.375306786050470E+09 Z =-4.612249684450531E+08
2461831.500000000 = A.D. 2028-Mar-01 00:00:00.0000 TDB 
 X = 3.331129157230424E+09 Y =-4.357448748778385E+09 Z =-4.621479929853442E+08
2461838.500000000 = A.D. 2028-Mar-08 00:00:00.0000 TDB 
 X = 3.339102411335063E+09 Y =-4.338858539434427E+09 Z =-4.630712775194855E+08
2461845.500000000 = A.D. 2028-Mar-15 00:00:00.0000 TDB 
 X = 3.344934226089785E+09 Y =-4.319800302228848E+09 Z =-4.639942118757606E+08
2461852.500000000 = A.D. 2028-Mar-22 00:00:00.0000 TDB 
 X = 3.348592031060823E+09 Y =-4.300524543246661E+09 Z =-4.649164169814050E+08
2461859.500000000 = A.D. 2028-Mar-29 00:00:00.0000 TDB 
 X = 3.350061505026747E+09 Y =-4.281297652290397E+09 Z =-4.658392596729271E+08
2461866.500000000 = A.D. 2028-Apr-05 00:00:00.0000 TDB 
 X = 3.349373381307313E+09 Y =-4.262394626835167E+09 Z =-4.667634248212404E+08
2461873.500000000 = A.D. 2028-Apr-12 00:00:00.0000 TDB 
 X = 3.346603796088248E+09 Y =-4.244070358724426E+09 Z =-4.676876730265794E+08
2461880.500000000 = A.D. 2028-Apr-19 00:00:00.0000 TDB 
 X = 3.341842615095455E+09 Y =-4.226552623448626E+09 Z =-4.686111338521571E+08
2461887.500000000 = A.D. 2028-Apr-26 00:00:00.0000 TDB 
 X = 3.335195213472412E+09 Y =-4.210071914220135E+09 Z =-4.695345316871386E+08
2461894.500000000 = A.D. 2028-May-03 00:00:00.0000 TDB 
 X = 3.326807159240029E+09 Y =-4.194851995596591E+09 Z =-4.704579017784538E+08
2461901.500000000 = A.D. 2028-May-10 00:00:00.0000 TDB 
 X = 3.316859174864938E+09 Y =-4.181082060832615E+09 Z =-4.713798750836880E+08
2461908.500000000 = A.D. 2028-May-17 00:00:00.0000 TDB 
 X = 3.305533968306033E+09 Y =-4.168916934281968E+09 Z =-4.723002783244302E+08
2461915.500000000 = A.D. 2028-May-24 00:00:00.0000 TDB 
 X = 3.293022173013899E+09 Y =-4.158506527811504E+09 Z =-4.732206035417998E+08
2461922.500000000 = A.D. 2028-May-31 00:00:00.0000 TDB 
 X = 3.279544888898501E+09 Y =-4.149984595032353E+09 Z =-4.741414305929937E+08
2461929.500000000 = A.D. 2028-Jun-07 00:00:00.0000 TDB 
 X = 3.265344419944736E+09 Y =-4.143441951013679E+09 Z =-4.750618208317091E+08
2461936.500000000 = A.D. 2028-Jun-14 00:00:00.0000 TDB 
 X = 3.250651273322675E+09 Y =-4.138933581545531E+09 Z =-4.759819840519021E+08
2461943.500000000 = A.D. 2028-Jun-21 00:00:00.0000 TDB 
 X = 3.235695203802359E+09 Y =-4.136506271343890E+09 Z =-4.769030993841567E+08
2461950.500000000 = A.D. 2028-Jun-28 00:00:00.0000 TDB 
 X = 3.220725755046694E+09 Y =-4.136185406527549E+09 Z =-4.778248904698598E+08
2461957.500000000 = A.D. 2028-Jul-05 00:00:00.0000 TDB 
 X = 3.205999741094847E+09 Y =-4.137949730412171E+09 Z =-4.787456113251529E+08
